start=new Date('2022-05-23T00:00:00.000Z').valueOf();
sats=[{"PERIAPSIS":"546.171","REF_FRAME":"TEME","CLASSIFICATION_TYPE":"U","EPHEMERIS_TYPE":"0","RA_OF_ASC_NODE":"312.8346","COUNTRY_CODE":"US","TLE_LINE2":"2 44757  53.0554 312.8346 0001523  64.7358 295.3788 15.06395919139421","RCS_SIZE":"LARGE","REV_AT_EPOCH":"13942","FILE":"3459268","MEAN_MOTION_DOT":"0.00001305","MEAN_ELEMENT_THEORY":"SGP4","OBJECT_TYPE":"PAYLOAD","PERIOD":"95.592","ECCENTRICITY":"0.00015230","MEAN_MOTION_DDOT":"0.0000000000000","LAUNCH_DATE":"2019-11-11","INCLINATION":"53.0554","EPOCH":"2022-05-22T18:00:42.409440","ARG_OF_PERICENTER":"64.7358","CENTER_NAME":"EARTH","GP_ID":"204279421","OBJECT_ID":"2019-074AW","TLE_LINE1":"1 44757U 19074AW  22142.75049085  .00001305  00000-0  10649-3 0  9999","SITE":"AFETR","TIME_SYSTEM":"UTC","NORAD_CAT_ID":"44757","MEAN_MOTION":"15.06395919","BSTAR":"0.00010649000000","DECAY_DATE":null,"APOAPSIS":"548.281","MEAN_ANOMALY":"295.3788","OBJECT_NAME":"STARLINK-1052","SEMIMAJOR_AXIS":"6925.361","ELEMENT_SET_NO":"999"},{"MEAN_MOTION_DOT":"0.00000825","FILE":"3459268","REV_AT_EPOCH":"13916","RCS_SIZE":"LARGE","TLE_LINE2":"2 44758  53.0548 332.5054 0001395  69.4618 290.6521 15.06398636139161","COUNTRY_CODE":"US","RA_OF_ASC_NODE":"332.5054","EPHEMERIS_TYPE":"0","CLASSIFICATION_TYPE":"U","PERIAPSIS":"546.252","REF_FRAME":"TEME","ARG_OF_PERICENTER":"69.4618","EPOCH":"2022-05-22T19:48:09.365760","INCLINATION":"53.0548","LAUNCH_DATE":"2019-11-11","PERIOD":"95.592","ECCENTRICITY":"0.00013950","MEAN_MOTION_DDOT":"0.0000000000000","OBJECT_TYPE":"PAYLOAD","MEAN_ELEMENT_THEORY":"SGP4","SITE":"AFETR","TLE_LINE1":"1 44758U 19074AX  22142.82510840  .00000825  00000-0  74256-4 0  9991","OBJECT_ID":"2019-074AX","GP_ID":"204279667","CENTER_NAME":"EARTH","ELEMENT_SET_NO":"999","SEMIMAJOR_AXIS":"6925.353","MEAN_ANOMALY":"290.6521","OBJECT_NAME":"STARLINK-1053","DECAY_DATE":null,"BSTAR":"0.00007425600000","APOAPSIS":"548.184","MEAN_MOTION":"15.06398636","NORAD_CAT_ID":"44758","TIME_SYSTEM":"UTC"},{"RA_OF_ASC_NODE":"332.5393","EPHEMERIS_TYPE":"0","RCS_SIZE":"LARGE","MEAN_MOTION_DOT":"-0.00000855","FILE":"3459268","REV_AT_EPOCH":"13680","TLE_LINE2":"2 44759  53.0541 332.5393 0001408  73.5663 286.5481 15.06395388136800","COUNTRY_CODE":"US","PERIAPSIS":"546.253","REF_FRAME":"TEME","CLASSIFICATION_TYPE":"U","INCLINATION":"53.0541","EPOCH":"2022-05-22T19:33:35.768448","ARG_OF_PERICENTER":"73.5663","MEAN_ELEMENT_THEORY":"SGP4","LAUNCH_DATE":"2019-11-11","OBJECT_TYPE":"PAYLOAD","PERIOD":"95.592","ECCENTRICITY":"0.00014080","MEAN_MOTION_DDOT":"0.0000000000000","SITE":"AFETR","TLE_LINE1":"1 44759U 19074AY  22142.81499732 -.00000855  00000-0 -38545-4 0  9993","GP_ID":"204277923","CENTER_NAME":"EARTH","OBJECT_ID":"2019-074AY","APOAPSIS":"548.203","DECAY_DATE":null,"BSTAR":"-0.00003854500000","MEAN_ANOMALY":"286.5481","OBJECT_NAME":"STARLINK-1054","SEMIMAJOR_AXIS":"6925.363","ELEMENT_SET_NO":"999","NORAD_CAT_ID":"44759","TIME_SYSTEM":"UTC","MEAN_MOTION":"15.06395388"},{"SITE":"AFETR","TLE_LINE1":"1 44760U 19074AZ  22142.80025132 -.00000001  00000-0  18824-4 0  9993","OBJECT_ID":"2019-074AZ","GP_ID":"204278173","CENTER_NAME":"EARTH","SEMIMAJOR_AXIS":"6925.355","ELEMENT_SET_NO":"999","BSTAR":"0.00001882400000","DECAY_DATE":null,"APOAPSIS":"548.458","OBJECT_NAME":"STARLINK-1055","MEAN_ANOMALY":"310.1567","MEAN_MOTION":"15.06397830","NORAD_CAT_ID":"44760","TIME_SYSTEM":"UTC","RCS_SIZE":"LARGE","MEAN_MOTION_DOT":"-0.00000001","FILE":"3459268","REV_AT_EPOCH":"13916","TLE_LINE2":"2 44760  53.0571 332.6109 0001787  49.9578 310.1567 15.06397830139168","COUNTRY_CODE":"US","RA_OF_ASC_NODE":"332.6109","EPHEMERIS_TYPE":"0","CLASSIFICATION_TYPE":"U","REF_FRAME":"TEME","PERIAPSIS":"545.983","ARG_OF_PERICENTER":"49.9578","EPOCH":"2022-05-22T19:12:21.714048","INCLINATION":"53.0571","LAUNCH_DATE":"2019-11-11","OBJECT_TYPE":"PAYLOAD","ECCENTRICITY":"0.00017870","PERIOD":"95.592","MEAN_MOTION_DDOT":"0.0000000000000","MEAN_ELEMENT_THEORY":"SGP4"},{"EPOCH":"2022-05-22T21:03:49.741056","INCLINATION":"53.0572","ARG_OF_PERICENTER":"73.6438","MEAN_ELEMENT_THEORY":"SGP4","LAUNCH_DATE":"2019-11-11","MEAN_MOTION_DDOT":"0.0000000000000","PERIOD":"95.593","ECCENTRICITY":"0.00016470","OBJECT_TYPE":"PAYLOAD","RA_OF_ASC_NODE":"332.2624","EPHEMERIS_TYPE":"0","REV_AT_EPOCH":"13917","FILE":"3459268","MEAN_MOTION_DOT":"0.00000058","RCS_SIZE":"LARGE","TLE_LINE2":"2 44761  53.0572 332.2624 0001647  73.6438 286.4732 15.06392462139178","COUNTRY_CODE":"US","REF_FRAME":"TEME","PERIAPSIS":"546.096","CLASSIFICATION_TYPE":"U","MEAN_ANOMALY":"286.4732","OBJECT_NAME":"STARLINK-1056","APOAPSIS":"548.377","DECAY_DATE":null,"BSTAR":"0.00002280100000","ELEMENT_SET_NO":"999","SEMIMAJOR_AXIS":"6925.372","NORAD_CAT_ID":"44761","TIME_SYSTEM":"UTC","MEAN_MOTION":"15.06392462","SITE":"AFETR","TLE_LINE1":"1 44761U 19074BA  22142.87765904  .00000058  00000-0  22801-4 0  9990","GP_ID":"204278922","CENTER_NAME":"EARTH","OBJECT_ID":"2019-074BA"},{"SITE":"AFETR","TLE_LINE1":"1 44762U 19074BB  22142.74680552  .00000142  00000-0  28459-4 0  9991","GP_ID":"204279168","CENTER_NAME":"EARTH","OBJECT_ID":"2019-074BB","MEAN_ANOMALY":"308.5286","OBJECT_NAME":"STARLINK-1057","BSTAR":"0.00002845900000","DECAY_DATE":null,"APOAPSIS":"548.224","ELEMENT_SET_NO":"999","SEMIMAJOR_AXIS":"6925.345","NORAD_CAT_ID":"44762","TIME_SYSTEM":"UTC","MEAN_MOTION":"15.06401212","RA_OF_ASC_NODE":"312.8459","EPHEMERIS_TYPE":"0","REV_AT_EPOCH":"13942","FILE":"3459268","MEAN_MOTION_DOT":"0.00000142","RCS_SIZE":"LARGE","COUNTRY_CODE":"US","TLE_LINE2":"2 44762  53.0552 312.8459 0001465  51.5834 308.5286 15.06401212139422","REF_FRAME":"TEME","PERIAPSIS":"546.195","CLASSIFICATION_TYPE":"U","INCLINATION":"53.0552","EPOCH":"2022-05-22T17:55:23.996928","ARG_OF_PERICENTER":"51.5834","MEAN_ELEMENT_THEORY":"SGP4","LAUNCH_DATE":"2019-11-11","ECCENTRICITY":"0.00014650","PERIOD":"95.592","MEAN_MOTION_DDOT":"0.0000000000000","OBJECT_TYPE":"PAYLOAD"},{"PERIAPSIS":"546.155","REF_FRAME":"TEME","CLASSIFICATION_TYPE":"U","EPHEMERIS_TYPE":"0","RA_OF_ASC_NODE":"332.4708","TLE_LINE2":"2 44763  53.0538 332.4708 0001554  61.5530 298.5616 15.06394341139165","COUNTRY_CODE":"US","FILE":"3459268","REV_AT_EPOCH":"13916","MEAN_MOTION_DOT":"0.00000555","RCS_SIZE":"LARGE","MEAN_ELEMENT_THEORY":"SGP4","MEAN_MOTION_DDOT":"0.0000000000000","PERIOD":"95.592","ECCENTRICITY":"0.00015540","OBJECT_TYPE":"PAYLOAD","LAUNCH_DATE":"2019-11-11","INCLINATION":"53.0538","EPOCH":"2022-05-22T20:00:08.175744","ARG_OF_PERICENTER":"61.5530","CENTER_NAME":"EARTH","GP_ID":"204278423","OBJECT_ID":"2019-074BC","TLE_LINE1":"1 44763U 19074BC  22142.83342796  .00000555  00000-0  56166-4 0  9991","SITE":"AFETR","TIME_SYSTEM":"UTC","NORAD_CAT_ID":"44763","MEAN_MOTION":"15.06394341","OBJECT_NAME":"STARLINK-1058","MEAN_ANOMALY":"298.5616","DECAY_DATE":null,"BSTAR":"0.00005616600000","APOAPSIS":"548.307","ELEMENT_SET_NO":"999","SEMIMAJOR_AXIS":"6925.366"},{"INCLINATION":"53.0561","EPOCH":"2022-05-22T17:50:04.997760","ARG_OF_PERICENTER":"59.7211","MEAN_ELEMENT_THEORY":"SGP4","OBJECT_TYPE":"PAYLOAD","ECCENTRICITY":"0.00016960","PERIOD":"95.592","MEAN_MOTION_DDOT":"0.0000000000000","LAUNCH_DATE":"2019-11-11","EPHEMERIS_TYPE":"0","RA_OF_ASC_NODE":"312.8737","TLE_LINE2":"2 44764  53.0561 312.8737 0001696  59.7211 300.3946 15.06402342139426","COUNTRY_CODE":"US","RCS_SIZE":"LARGE","FILE":"3459268","REV_AT_EPOCH":"13942","MEAN_MOTION_DOT":"0.00000694","REF_FRAME":"TEME","PERIAPSIS":"546.032","CLASSIFICATION_TYPE":"U","BSTAR":"0.00006546300000","DECAY_DATE":null,"APOAPSIS":"548.381","OBJECT_NAME":"STARLINK-1059","MEAN_ANOMALY":"300.3946","SEMIMAJOR_AXIS":"6925.341","ELEMENT_SET_NO":"999","TIME_SYSTEM":"UTC","NORAD_CAT_ID":"44764","MEAN_MOTION":"15.06402342","TLE_LINE1":"1 44764U 19074BD  22142.74311340  .00000694  00000-0  65463-4 0  9997","SITE":"AFETR","CENTER_NAME":"EARTH","GP_ID":"204278673","OBJECT_ID":"2019-074BD"},{"REF_FRAME":"TEME","PERIAPSIS":"546.243","CLASSIFICATION_TYPE":"U","RA_OF_ASC_NODE":"312.7727","EPHEMERIS_TYPE":"0","FILE":"3459268","REV_AT_EPOCH":"13942","MEAN_MOTION_DOT":"0.00000272","RCS_SIZE":"LARGE","TLE_LINE2":"2 44765  53.0550 312.7727 0001403  73.9291 286.1852 15.06399672139423","COUNTRY_CODE":"US","MEAN_ELEMENT_THEORY":"SGP4","LAUNCH_DATE":"2019-11-11","ECCENTRICITY":"0.00014030","PERIOD":"95.592","MEAN_MOTION_DDOT":"0.0000000000000","OBJECT_TYPE":"PAYLOAD","INCLINATION":"53.0550","EPOCH":"2022-05-22T18:16:37.605504","ARG_OF_PERICENTER":"73.9291","GP_ID":"204279422","CENTER_NAME":"EARTH","OBJECT_ID":"2019-074BE","SITE":"AFETR","TLE_LINE1":"1 44765U 19074BE  22142.76154636  .00000272  00000-0  37152-4 0  9999","NORAD_CAT_ID":"44765","TIME_SYSTEM":"UTC","MEAN_MOTION":"15.06399672","MEAN_ANOMALY":"286.1852","OBJECT_NAME":"STARLINK-1060","DECAY_DATE":null,"APOAPSIS":"548.186","BSTAR":"0.00003715200000","ELEMENT_SET_NO":"999","SEMIMAJOR_AXIS":"6925.350"},{"RA_OF_ASC_NODE":"332.4964","EPHEMERIS_TYPE":"0","RCS_SIZE":"LARGE","MEAN_MOTION_DOT":"0.00000145","FILE":"3459268","REV_AT_EPOCH":"13916","COUNTRY_CODE":"US","TLE_LINE2":"2 44766  53.0580 332.4964 0001344  81.1957 278.9184 15.06397022139168","PERIAPSIS":"546.292","REF_FRAME":"TEME","CLASSIFICATION_TYPE":"U","EPOCH":"2022-05-22T19:49:31.063872","INCLINATION":"53.0580","ARG_OF_PERICENTER":"81.1957","MEAN_ELEMENT_THEORY":"SGP4","LAUNCH_DATE":"2019-11-11","OBJECT_TYPE":"PAYLOAD","ECCENTRICITY":"0.00013440","PERIOD":"95.592","MEAN_MOTION_DDOT":"0.0000000000000","SITE":"AFETR","TLE_LINE1":"1 44766U 19074BF  22142.82605398  .00000145  00000-0  28651-4 0  9996","GP_ID":"204279668","CENTER_NAME":"EARTH","OBJECT_ID":"2019-074BF","DECAY_DATE":null,"APOAPSIS":"548.153","BSTAR":"0.00002865100000","MEAN_ANOMALY":"278.9184","OBJECT_NAME":"STARLINK-1061","SEMIMAJOR_AXIS":"6925.358","ELEMENT_SET_NO":"999","NORAD_CAT_ID":"44766","TIME_SYSTEM":"UTC","MEAN_MOTION":"15.06397022"}];
